{
  "type": "FeatureCollection",
  "features": [
    {
      "type": "Feature",
      "properties": {
        "norad_id": 38857,
        "name": "GSAT0103 (GALILEO-FM3)",
        "group": "gnss",
        "lat": -20.96561835721717,
        "lon": -58.405074213018594,
        "alt_km": 23221.34012638852,
        "timestamp": "2025-12-20T07:33:51.055712+00:00",
        "meta_object_name": "GSAT0103 (GALILEO-FM3)",
        "meta_object_id": "2012-055A",
        "meta_epoch": "2025-12-18T05:17:11.481792",
        "meta_mean_motion": 1.70473412,
        "meta_eccentricity": 0.00028558,
        "meta_inclination": 55.6954,
        "meta_ra_of_asc_node": 106.5161,
        "meta_arg_of_pericenter": 269.0808,
        "meta_mean_anomaly": 90.8455,
        "meta_ephemeris_type": 0,
        "meta_classification_type": "U",
        "meta_norad_cat_id": 38857,
        "meta_element_set_no": 999,
        "meta_rev_at_epoch": 8192,
        "meta_bstar": 0,
        "meta_mean_motion_dot": -7e-08,
        "meta_mean_motion_ddot": 0,
        "tle_line1": "1 38857U 12055A   25352.22027178 -.00000007  00000+0  00000+0 0  9996",
        "tle_line2": "2 38857  55.6954 106.5161 0002855 269.0808  90.8455  1.70473412 81920"
      },
      "geometry": {
        "type": "Point",
        "coordinates": [
          -58.405074213018594,
          -20.96561835721717
        ]
      }
    },
    {
      "type": "Feature",
      "properties": {
        "norad_id": 38953,
        "name": "BEIDOU-2 G6 (C02)",
        "group": "gnss",
        "lat": -2.070430269739768,
        "lon": -73.59532308130395,
        "alt_km": 35781.914153504054,
        "timestamp": "2025-12-20T07:33:51.055723+00:00",
        "meta_object_name": "BEIDOU-2 G6 (C02)",
        "meta_object_id": "2012-059A",
        "meta_epoch": "2025-12-19T19:55:47.653824",
        "meta_mean_motion": 1.00269116,
        "meta_eccentricity": 0.00082259,
        "meta_inclination": 3.9664,
        "meta_ra_of_asc_node": 75.4373,
        "meta_arg_of_pericenter": 292.2624,
        "meta_mean_anomaly": 103.8748,
        "meta_ephemeris_type": 0,
        "meta_classification_type": "U",
        "meta_norad_cat_id": 38953,
        "meta_element_set_no": 999,
        "meta_rev_at_epoch": 4811,
        "meta_bstar": 0,
        "meta_mean_motion_dot": -1.53e-06,
        "meta_mean_motion_ddot": 0,
        "tle_line1": "1 38953U 12059A   25353.83041266 -.00000153  00000+0  00000+0 0  9991",
        "tle_line2": "2 38953   3.9664  75.4373 0008225 292.2624 103.8748  1.00269116 48112"
      },
      "geometry": {
        "type": "Point",
        "coordinates": [
          -73.59532308130395,
          -2.070430269739768
        ]
      }
    },
    {
      "type": "Feature",
      "properties": {
        "norad_id": 38977,
        "name": "LUCH 5B (SDCM/PRN 125)",
        "group": "gnss",
        "lat": 7.177087467804023,
        "lon": -173.33117574235487,
        "alt_km": 35771.244831054486,
        "timestamp": "2025-12-20T07:33:51.055738+00:00",
        "meta_object_name": "LUCH 5B (SDCM/PRN 125)",
        "meta_object_id": "2012-061A",
        "meta_epoch": "2025-12-19T09:45:48.040128",
        "meta_mean_motion": 1.00272447,
        "meta_eccentricity": 0.0006637,
        "meta_inclination": 10.0949,
        "meta_ra_of_asc_node": 51.6423,
        "meta_arg_of_pericenter": 195.0445,
        "meta_mean_anomaly": 331.6899,
        "meta_ephemeris_type": 0,
        "meta_classification_type": "U",
        "meta_norad_cat_id": 38977,
        "meta_element_set_no": 999,
        "meta_rev_at_epoch": 4780,
        "meta_bstar": 0,
        "meta_mean_motion_dot": -1.21e-06,
        "meta_mean_motion_ddot": 0,
        "tle_line1": "1 38977U 12061A   25353.40680602 -.00000121  00000+0  00000+0 0  9991",
        "tle_line2": "2 38977  10.0949  51.6423 0006637 195.0445 331.6899  1.00272447 47805"
      },
      "geometry": {
        "type": "Point",
        "coordinates": [
          -173.33117574235487,
          7.177087467804023
        ]
      }
    },
    {
      "type": "Feature",
      "properties": {
        "norad_id": 39155,
        "name": "COSMOS 2485 (747)",
        "group": "gnss",
        "lat": 29.276907418792476,
        "lon": -115.28908219862744,
        "alt_km": 19118.193085009483,
        "timestamp": "2025-12-20T07:33:51.055750+00:00",
        "meta_object_name": "COSMOS 2485 (747)",
        "meta_object_id": "2013-019A",
        "meta_epoch": "2025-12-18T17:09:02.655648",
        "meta_mean_motion": 2.13103192,
        "meta_eccentricity": 0.00247782,
        "meta_inclination": 65.3168,
        "meta_ra_of_asc_node": 79.6661,
        "meta_arg_of_pericenter": 230.0863,
        "meta_mean_anomaly": 129.7189,
        "meta_ephemeris_type": 0,
        "meta_classification_type": "U",
        "meta_norad_cat_id": 39155,
        "meta_element_set_no": 999,
        "meta_rev_at_epoch": 9843,
        "meta_bstar": 0,
        "meta_mean_motion_dot": -3.5e-07,
        "meta_mean_motion_ddot": 0,
        "tle_line1": "1 39155U 13019A   25352.71461407 -.00000035  00000+0  00000+0 0  9991",
        "tle_line2": "2 39155  65.3168  79.6661 0024778 230.0863 129.7189  2.13103192 98432"
      },
      "geometry": {
        "type": "Point",
        "coordinates": [
          -115.28908219862744,
          29.276907418792476
        ]
      }
    },
    {
      "type": "Feature",
      "properties": {
        "norad_id": 39166,
        "name": "GPS BIIF-4  (PRN 27)",
        "group": "gnss",
        "lat": 54.66951516913637,
        "lon": 5.993580399552473,
        "alt_km": 19897.46886964785,
        "timestamp": "2025-12-20T07:33:51.055762+00:00",
        "meta_object_name": "GPS BIIF-4  (PRN 27)",
        "meta_object_id": "2013-023A",
        "meta_epoch": "2025-12-19T04:43:12.887616",
        "meta_mean_motion": 2.00564719,
        "meta_eccentricity": 0.0138305,
        "meta_inclination": 54.6464,
        "meta_ra_of_asc_node": 276.3057,
        "meta_arg_of_pericenter": 48.6894,
        "meta_mean_anomaly": 312.5202,
        "meta_ephemeris_type": 0,
        "meta_classification_type": "U",
        "meta_norad_cat_id": 39166,
        "meta_element_set_no": 999,
        "meta_rev_at_epoch": 9227,
        "meta_bstar": 0,
        "meta_mean_motion_dot": -2.9e-07,
        "meta_mean_motion_ddot": 0,
        "tle_line1": "1 39166U 13023A   25353.19667694 -.00000029  00000+0  00000+0 0  9990",
        "tle_line2": "2 39166  54.6464 276.3057 0138305  48.6894 312.5202  2.00564719 92274"
      },
      "geometry": {
        "type": "Point",
        "coordinates": [
          5.993580399552473,
          54.66951516913637
        ]
      }
    },
    {
      "type": "Feature",
      "properties": {
        "norad_id": 39199,
        "name": "IRNSS-1A",
        "group": "gnss",
        "lat": -6.293247062104011,
        "lon": -104.5967583148247,
        "alt_km": 35689.53986448192,
        "timestamp": "2025-12-20T07:33:51.055776+00:00",
        "meta_object_name": "IRNSS-1A",
        "meta_object_id": "2013-034A",
        "meta_epoch": "2025-12-18T18:41:43.776960",
        "meta_mean_motion": 1.00272479,
        "meta_eccentricity": 0.0024472,
        "meta_inclination": 35.3183,
        "meta_ra_of_asc_node": 66.4661,
        "meta_arg_of_pericenter": 211.0525,
        "meta_mean_anomaly": 145.3931,
        "meta_ephemeris_type": 0,
        "meta_classification_type": "U",
        "meta_norad_cat_id": 39199,
        "meta_element_set_no": 999,
        "meta_rev_at_epoch": 4555,
        "meta_bstar": 0,
        "meta_mean_motion_dot": 6.5e-07,
        "meta_mean_motion_ddot": 0,
        "tle_line1": "1 39199U 13034A   25352.77897890  .00000065  00000+0  00000+0 0  9993",
        "tle_line2": "2 39199  35.3183  66.4661 0024472 211.0525 145.3931  1.00272479 45557"
      },
      "geometry": {
        "type": "Point",
        "coordinates": [
          -104.5967583148247,
          -6.293247062104011
        ]
      }
    },
    {
      "type": "Feature",
      "properties": {
        "norad_id": 39533,
        "name": "GPS BIIF-5  (PRN 30)",
        "group": "gnss",
        "lat": 53.591745476540105,
        "lon": -111.66776565112681,
        "alt_km": 20324.661934092157,
        "timestamp": "2025-12-20T07:33:51.055788+00:00",
        "meta_object_name": "GPS BIIF-5  (PRN 30)",
        "meta_object_id": "2014-008A",
        "meta_epoch": "2025-12-17T04:42:21.782016",
        "meta_mean_motion": 2.00574699,
        "meta_eccentricity": 0.00793343,
        "meta_inclination": 53.632,
        "meta_ra_of_asc_node": 156.7429,
        "meta_arg_of_pericenter": 226.5757,
        "meta_mean_anomaly": 132.7662,
        "meta_ephemeris_type": 0,
        "meta_classification_type": "U",
        "meta_norad_cat_id": 39533,
        "meta_element_set_no": 999,
        "meta_rev_at_epoch": 8603,
        "meta_bstar": 0,
        "meta_mean_motion_dot": 7.8e-07,
        "meta_mean_motion_ddot": 0,
        "tle_line1": "1 39533U 14008A   25351.19608544  .00000078  00000+0  00000+0 0  9992",
        "tle_line2": "2 39533  53.6320 156.7429 0079334 226.5757 132.7662  2.00574699 86034"
      },
      "geometry": {
        "type": "Point",
        "coordinates": [
          -111.66776565112681,
          53.591745476540105
        ]
      }
    }
  ]
}